2022-058A               
1 52785U 22058A   22181.51367576  .00001343  00000+0  17648-3 0  9997
2 52785  49.9965 128.7915 0012273  33.5677 326.6033 14.86437107  4222
2022-058B               
1 52786U 22058B   22181.51155356  .00000829  00000+0  11875-3 0  9993
2 52786  50.0021 128.7909 0012253  36.1744 324.0021 14.86533820  4200
2022-058C               
1 52787U 22058C   22181.44275750  .00001394  00000+0  18141-3 0  9998
2 52787  49.9916 129.0693 0012763  36.3553 323.8246 14.86631511  4191
2022-058D               
1 52788U 22058D   22181.43994498  .00001406  00000+0  18204-3 0  9999
2 52788  50.0064 129.0893 0012946  39.0463 321.1403 14.86780874  4197
2022-058E               
1 52789U 22058E   22181.43762257  .00000787  00000+0  11322-3 0  9991
2 52789  49.9902 129.0318 0014172  39.4713 320.7259 14.86884021  4196
2022-058F               
1 52790U 22058F   22181.43255030  .00001389  00000+0  17856-3 0  9996
2 52790  50.0080 129.0454 0014252  44.2601 315.9469 14.87162455  4198
2022-058G               
1 52791U 22058G   22181.42974769  .00001432  00000+0  18267-3 0  9999
2 52791  49.9916 128.9851 0015259  45.2592 314.9582 14.87317056  4195
2022-058H               
1 52792U 22058H   22181.42585186  .00000913  00000+0  12533-3 0  9994
2 52792  49.9962 128.9732 0016221  46.8088 313.4203 14.87509472  4191
2022-058J               
1 52793U 22058J   22181.42347878  .00001432  00000+0  18125-3 0  9999
2 52793  50.0016 128.9722 0016383  48.7909 311.4435 14.87640573  4223
CZ-2C R/B               
1 52794U 22058K   22181.32086375  .00001215  00000+0  81477-4 0  9991
2 52794  50.1770 125.4023 0103986 151.2725 209.4009 15.10842362  4231
PROGRESS-MS 20          
1 52795U 22059A   22180.53207176  .00008787  00000+0  16309-3 0  9991
2 52795  51.6436 275.4481 0004461 311.4228 231.1241 15.49763021347097
SHENZHOU 14             
1 52797U 22060A   22180.64132396  .00011612  00000+0  14012-3 0  9998
2 52797  41.4702 143.1757 0003226 348.0105 179.0918 15.60615494 66718
NILESAT 301             
1 52817U 22061A   22181.58521721 -.00000074  00000+0  00000+0 0  9999
2 52817   0.0229 332.5371 0000744 247.9213 258.6182  1.00273440   222
FALCON 9 R/B            
1 52818U 22061B   22180.57902177  .00278770  00000+0  35335+0 0  9994
2 52818  18.7553  39.4456 7692725 189.7012 133.8461  1.75849338   365
STARLINK-4091           
1 52830U 22062A   22181.58334491 -.00765342  00000+0 -49168-2 0  9999
2 52830  53.2177 340.3026 0001422  27.8225  33.6087 15.77580407  1303
STARLINK-4089           
1 52831U 22062B   22181.58334491 -.00766073  00000+0 -49291-2 0  9999
2 52831  53.2177 340.3066 0001380  23.5619  36.3943 15.77548349  1301
STARLINK-4083           
1 52832U 22062C   22181.58334491 -.00766865  00000+0 -49329-2 0  9991
2 52832  53.2177 340.3048 0001086  28.9251  31.5326 15.77558685  1302
STARLINK-4086           
1 52833U 22062D   22181.58334491 -.00765258  00000+0 -49188-2 0  9990
2 52833  53.2177 340.3045 0001335  31.4922  29.4486 15.77569431  1305
STARLINK-4108           
1 52834U 22062E   22181.58334491 -.00766053  00000+0 -49195-2 0  9993
2 52834  53.2177 340.3019 0001279  28.0643  33.8558 15.77591891  1300
STARLINK-4080           
1 52835U 22062F   22181.58334491 -.00767405  00000+0 -49264-2 0  9993
2 52835  53.2177 340.3017 0001251  20.3203  42.0887 15.77603731  1300
STARLINK-4043           
1 52836U 22062G   22181.58334491 -.00766073  00000+0 -49148-2 0  9995
2 52836  53.2177 340.3000 0001350  25.9356  36.9697 15.77613166  1307
STARLINK-4036           
1 52837U 22062H   22181.58334491 -.00766163  00000+0 -49082-2 0  9993
2 52837  53.2177 340.2976 0001308  26.5756  37.7953 15.77646220  1304
STARLINK-4092           
1 52838U 22062J   22181.58334491 -.00765807  00000+0 -49104-2 0  9993
2 52838  53.2177 340.2991 0001378  27.6377  35.7521 15.77624435  1303
STARLINK-4048           
1 52839U 22062K   22181.58334491 -.00765944  00000+0 -49017-2 0  9999
2 52839  53.2177 340.2956 0001369  27.0096  38.3352 15.77668229  1307
STARLINK-4049           
1 52840U 22062L   22181.58334491 -.00764958  00000+0 -48973-2 0  9995
2 52840  53.2177 340.2963 0001388  31.0157  33.8400 15.77656811  1309
STARLINK-4065           
1 52841U 22062M   22181.58334491 -.00774424  00000+0 -49517-2 0  9990
2 52841  53.2177 340.2928 0001779 331.7159  95.0884 15.77706132  1305
STARLINK-4046           
1 52842U 22062N   22181.58334491 -.00767483  00000+0 -49200-2 0  9997
2 52842  53.2177 340.2982 0001132  20.6082  43.2745 15.77636026  1303
STARLINK-4188           
1 52843U 22062P   22181.58334491 -.00774534  00000+0 -49472-2 0  9994
2 52843  53.2177 340.2907 0001766 331.5557  96.2046 15.77729874  1301
STARLINK-4208           
1 52844U 22062Q   22181.58334491 -.00766117  00000+0 -49003-2 0  9993
2 52844  53.2177 340.2944 0001371  26.0879  39.7373 15.77680023  1305
STARLINK-4168           
1 52845U 22062R   22181.58334491 -.00774324  00000+0 -49434-2 0  9991
2 52845  53.2177 340.2900 0001760 332.8836  95.3664 15.77740407  1305
STARLINK-4212           
1 52846U 22062S   22181.58334491 -.00765755  00000+0 -48904-2 0  9991
2 52846  53.2177 340.2917 0001369  28.4220  38.8571 15.77713495  1300
STARLINK-4206           
1 52847U 22062T   22181.58334491 -.00765415  00000+0 -48781-2 0  9998
2 52847  53.2177 340.2881 0001498  26.0034  43.2168 15.77757519  1308
STARLINK-4202           
1 52848U 22062U   22181.58334491 -.00766275  00000+0 -48989-2 0  9994
2 52848  53.2177 340.2935 0001327  25.1540  41.1529 15.77691712  1302
STARLINK-4197           
1 52849U 22062V   22181.58334491 -.00765989  00000+0 -48773-2 0  9997
2 52849  53.2177 340.2862 0001495  23.8730  46.3223 15.77779352  1309
STARLINK-4187           
1 52850U 22062W   22181.58334491 -.00766590  00000+0 -48889-2 0  9996
2 52850  53.2177 340.2888 0001282  25.1268  43.6064 15.77747410  1307
STARLINK-3809           
1 52851U 22062X   22181.58334491 -.00765597  00000+0 -48721-2 0  9998
2 52851  53.2177 340.2854 0001559  24.3382  46.3428 15.77790052  1300
STARLINK-4184           
1 52852U 22062Y   22181.58334491 -.00764739  00000+0 -48711-2 0  9995
2 52852  53.2177 340.2868 0001467  29.4858  40.2177 15.77768277  1306
STARLINK-4189           
1 52853U 22062Z   22181.58334491 -.00768643  00000+0 -48884-2 0  9995
2 52853  53.2177 340.2833 0001232  14.3520  57.2879 15.77814813  1303
STARLINK-4204           
1 52854U 22062AA  22181.58334491 -.00765750  00000+0 -48710-2 0  9990
2 52854  53.2177 340.2840 0001316  30.8527  40.3046 15.77801943  1304
STARLINK-4209           
1 52855U 22062AB  22181.58334491 -.00765436  00000+0 -48584-2 0  9991
2 52855  53.2177 340.2805 0001681  21.7800  51.3057 15.77846362  1302
STARLINK-4201           
1 52856U 22062AC  22181.58334491 -.00768235  00000+0 -48831-2 0  9997
2 52856  53.2177 340.2820 0001266  15.4521  56.6698 15.77825744  1309
STARLINK-4199           
1 52857U 22062AD  22181.58334491 -.00764791  00000+0 -48500-2 0  9994
2 52857  53.2177 340.2786 0001381  32.7403  41.3224 15.77866896  1309
STARLINK-4198           
1 52858U 22062AE  22181.58334491 -.00779433  00000+0 -49489-2 0  9991
2 52858  53.2177 340.2812 0004600 317.5195 115.0782 15.77843120  1302
STARLINK-4196           
1 52859U 22062AF  22181.58334491 -.00767538  00000+0 -48660-2 0  9995
2 52859  53.2177 340.2776 0001420  19.0726  55.4649 15.77880270  1309
STARLINK-4191           
1 52860U 22062AG  22181.58334491 -.00765796  00000+0 -48593-2 0  9996
2 52860  53.2177 340.2791 0001422  27.2808  46.3059 15.77855829  1308
STARLINK-4112           
1 52861U 22062AH  22181.58334491 -.00770159  00000+0 -48727-2 0  9995
2 52861  53.2177 340.2728 0000809  23.6169  53.3275 15.77937052  1304
STARLINK-4010           
1 52862U 22062AJ  22181.58334491 -.00771048  00000+0 -48877-2 0  9990
2 52862  53.2177 340.2762 0001314 358.9944  76.0298 15.77892862  1306
STARLINK-4270           
1 52863U 22062AK  22181.58334491 -.00765772  00000+0 -48469-2 0  9995
2 52863  53.2177 340.2748 0001326  30.8888  45.0919 15.77912493  1306
STARLINK-4267           
1 52864U 22062AL  22181.58334491 -.00764527  00000+0 -48407-2 0  9995
2 52864  53.2177 340.2753 0001512  29.4123  46.0944 15.77899980  1300
STARLINK-4274           
1 52865U 22062AM  22181.58334491 -.00765037  00000+0 -48321-2 0  9998
2 52865  53.2177 340.2709 0001407  31.0457  46.8559 15.77956368  1308
STARLINK-4272           
1 52866U 22062AN  22181.58334491 -.00769707  00000+0 -48717-2 0  9996
2 52866  53.2177 340.2734 0000992  24.8202  51.6408 15.77926013  1304
STARLINK-4126           
1 52867U 22062AP  22181.58334491 -.00766297  00000+0 -48360-2 0  9992
2 52867  53.2177 340.2690 0001347  27.2390  51.6268 15.77978758  1303
STARLINK-4261           
1 52868U 22062AQ  22181.58334491 -.00767263  00000+0 -48500-2 0  9993
2 52868  53.2177 340.2715 0001174  27.4996  49.9227 15.77946590  1308
STARLINK-4266           
1 52869U 22062AR  22181.58334491 -.00764706  00000+0 -48227-2 0  9999
2 52869  53.2177 340.2681 0001465  30.3161  49.0320 15.77988526  1301
STARLINK-4195           
1 52870U 22062AS  22181.58334491 -.00764849  00000+0 -48285-2 0  9993
2 52870  53.2177 340.2696 0001440  30.5795  47.8087 15.77966642  1308
STARLINK-4207           
1 52871U 22062AT  22181.58334491 -.00765979  00000+0 -48244-2 0  9994
2 52871  53.2177 340.2653 0001243  33.5079  47.2735 15.78022737  1304
STARLINK-4213           
1 52872U 22062AU  22181.58334491 -.00766220  00000+0 -48310-2 0  9999
2 52872  53.2177 340.2667 0001214  33.2503  46.5790 15.78000305  1307
STARLINK-4211           
1 52873U 22062AV  22181.58334491 -.00767763  00000+0 -48319-2 0  9992
2 52873  53.2177 340.2634 0001235  23.9754  57.7763 15.78044598  1305
STARLINK-4210           
1 52874U 22062AW  22181.58334491 -.00764175  00000+0 -48143-2 0  9992
2 52874  53.2177 340.2658 0001470  33.4887  46.8175 15.78010321  1309
